CRE (WAAS/PRN 138)      
1 28868U 05036A   23144.11202090 -.00000071  00000+0  00000+0 0  9992
2 28868   1.4277  90.2040 0002646 337.6199 106.6567  1.00272159 64925
IOR-W (EGNOS/PRN 126)   
1 28899U 05044A   23143.98670019  .00000013  00000+0  00000+0 0  9994
2 28899   3.7883  40.1834 0002508  25.0924 235.1535  1.00271424 64267
QZS-1 (QZSS/PRN 183)    
1 37158U 10045A   23143.83622813 -.00000111  00000+0  00000+0 0  9992
2 37158  42.7047 128.7065 0762316 270.5355 282.4476  1.00282598 46481
GSAT-8 (GAGAN/PRN 127)  
1 37605U 11022A   23143.85759123  .00000088  00000+0  00000+0 0  9994
2 37605   0.0331 262.2215 0003704  52.3014 290.4531  1.00270238 41988
LUCH 5A (SDCM/PRN 140)  
1 37951U 11074B   23143.76644153 -.00000045  00000+0  00000+0 0  9995
2 37951   5.8827  91.4534 0004628 346.9545 245.4673  1.00272724 41819
SES-5 (EGNOS/PRN 136)   
1 38652U 12036A   23143.99103612  .00000038  00000+0  00000+0 0  9999
2 38652   0.0465 300.3958 0001679 114.3467 188.3454  1.00272610 39833
GSAT-10 (GAGAN/PRN 128) 
1 38779U 12051B   23143.83315356 -.00000162  00000+0  00000+0 0  9998
2 38779   0.0414 121.8725 0001198 213.5766 288.6933  1.00270441 38885
LUCH 5B (SDCM/PRN 125)  
1 38977U 12061A   23144.42948515 -.00000133  00000+0  00000+0 0  9992
2 38977   8.0343  59.9779 0004101  50.0548 270.0478  1.00273138 38945
ASTRA 5B (EGNOS/PRN 123)
1 39617U 14011B   23144.03313219  .00000158  00000+0  00000+0 0  9991
2 39617   0.0671 305.9177 0003274 136.7403 202.1635  1.00271437 33633
LUCH 5V (SDCM/PRN 141)  
1 39727U 14023A   23143.86552323 -.00000266  00000+0  00000+0 0  9998
2 39727   2.3238  77.5041 0001670  20.4728 189.5388  1.00275960 33120
GSAT-15 (GAGAN/PRN 139) 
1 41028U 15065A   23144.51230139 -.00000254  00000+0  00000+0 0  9990
2 41028   0.0237 261.3308 0003821 154.8540 103.5753  1.00271174 27638
E 117 W B (WAAS/PRN 131)
1 41589U 16038B   23144.43800007 -.00000008  00000+0  00000+0 0  9998
2 41589   0.0389 132.1057 0000245 343.3410 167.0044  1.00270735 25472
SES-15 (WAAS/PRN 133)   
1 42709U 17026A   23144.42996843  .00000064  00000+0  00000+0 0  9995
2 42709   0.0267  26.5018 0000227 334.2887 266.6349  1.00269633 22951
QZS-2 (QZSS/PRN 184)    
1 42738U 17028A   23142.65727389 -.00000220  00000+0  00000+0 0  9994
2 42738  41.2116 259.3620 0761947 268.9223  87.6121  1.00292269 21902
QZS-3 (QZSS/PRN 189)    
1 42917U 17048A   23144.54292372 -.00000344  00000+0  00000+0 0  9991
2 42917   0.0817 132.9977 0001697 299.0827 132.2707  1.00268936 21144
QZS-4 (QZSS/PRN 185)    
1 42965U 17062A   23143.82713331 -.00000349  00000+0  00000+0 0  9998
2 42965  40.6705 357.7546 0746177 271.1072  48.3891  1.00261196 20572
BEIDOU-3 G1 (PRN 130)   
1 43683U 18085A   23144.03799432 -.00000274  00000+0  00000+0 0  9999
2 43683   1.2996 132.1692 0004139 316.4141 306.5505  1.00270923 16829
BEIDOU-3 G2 (PRN 144)   
1 45344U 20017A   23144.43603300 -.00000138  00000+0  00000+0 0  9994
2 45344   2.0056  10.7172 0002550  87.3514  20.7195  1.00272173 12047
BEIDOU-3 G3 (PRN 143)   
1 45807U 20040A   23144.08377950 -.00000351  00000+0  00000+0 0  9991
2 45807   0.7457 326.3577 0006646 321.9152  93.8702  1.00275673 10851
GALAXY 30 (WAAS/PRN 135)
1 46114U 20056C   23143.67838088  .00000040  00000+0  00000+0 0  9992
2 46114   0.0149 358.1985 0001969  67.5276 294.5022  1.00272821 10052
